{"type": "FeatureCollection", "features": [ {"type": "Feature", "properties": {"norad_id": 37834, "name": "INTELSAT 18 (IS-18)", "group": "intelsat", "lat": 0.03167328387950355, "lon": 59.626025582904546, "alt_km": 35791.12238286237, "timestamp": "2025-12-22T09:53:37.074093+00:00", "meta": {"OBJECT_NAME": "INTELSAT 18 (IS-18)", "OBJECT_ID": "2011-056A", "EPOCH": "2025-12-22T03:26:38.920128", "MEAN_MOTION": 1.00271316, "ECCENTRICITY": 0.0001699, "INCLINATION": 0.0294, "RA_OF_ASC_NODE": 282.6793, "ARG_OF_PERICENTER": 3.8168, "MEAN_ANOMALY": 36.1164, "EPHEMERIS_TYPE": 0, "CLASSIFICATION_TYPE": "U", "NORAD_CAT_ID": 37834, "ELEMENT_SET_NO": 999, "REV_AT_EPOCH": 5203, "BSTAR": 0, "MEAN_MOTION_DOT": 7.5e-07, "MEAN_MOTION_DDOT": 0}, "tle": {"line1": "1 37834U 11056A   25356.14350602  .00000075  00000+0  00000+0 0  9990", "line2": "2 37834   0.0294 282.6793 0001699   3.8168  36.1164  1.00271316 52032"}}, "geometry": {"type": "Point", "coordinates": [59.626025582904546, 0.03167328387950355]}}, {"type": "Feature", "properties": {"norad_id": 38098, "name": "INTELSAT 22 (IS-22)", "group": "intelsat", "lat": -0.02237337562154234, "lon": -48.2835604348561, "alt_km": 35779.55444319142, "timestamp": "2025-12-22T09:53:37.074105+00:00", "meta": {"OBJECT_NAME": "INTELSAT 22 (IS-22)", "OBJECT_ID": "2012-011A", "EPOCH": "2025-12-22T03:14:12.667776", "MEAN_MOTION": 1.00271239, "ECCENTRICITY": 0.0001765, "INCLINATION": 0.0076, "RA_OF_ASC_NODE": 348.0115, "ARG_OF_PERICENTER": 297.1725, "MEAN_ANOMALY": 286.4063, "EPHEMERIS_TYPE": 0, "CLASSIFICATION_TYPE": "U", "NORAD_CAT_ID": 38098, "ELEMENT_SET_NO": 999, "REV_AT_EPOCH": 541, "BSTAR": 0, "MEAN_MOTION_DOT": -3.6e-07, "MEAN_MOTION_DDOT": 0}, "tle": {"line1": "1 38098U 12011A   25356.13486884 -.00000036  00000+0  00000+0 0  9994", "line2": "2 38098   0.0076 348.0115 0001765 297.1725 286.4063  1.00271239  5411"}}, "geometry": {"type": "Point", "coordinates": [-48.2835604348561, -0.02237337562154234]}}, {"type": "Feature", "properties": {"norad_id": 38356, "name": "INTELSAT 19 (IS-19)", "group": "intelsat", "lat": 0.03275448439214227, "lon": 45.63656773061211, "alt_km": 35794.93027619421, "timestamp": "2025-12-22T09:53:37.074117+00:00", "meta": {"OBJECT_NAME": "INTELSAT 19 (IS-19)", "OBJECT_ID": "2012-030A", "EPOCH": "2025-12-22T03:42:38.798208", "MEAN_MOTION": 1.00272063, "ECCENTRICITY": 0.000282, "INCLINATION": 0.0195, "RA_OF_ASC_NODE": 311.5109, "ARG_OF_PERICENTER": 315.6915, "MEAN_ANOMALY": 45.4231, "EPHEMERIS_TYPE": 0, "CLASSIFICATION_TYPE": "U", "NORAD_CAT_ID": 38356, "ELEMENT_SET_NO": 999, "REV_AT_EPOCH": 4867, "BSTAR": 0, "MEAN_MOTION_DOT": -3.4e-07, "MEAN_MOTION_DDOT": 0}, "tle": {"line1": "1 38356U 12030A   25356.15461572 -.00000034  00000+0  00000+0 0  9999", "line2": "2 38356   0.0195 311.5109 0002820 315.6915  45.4231  1.00272063 48679"}}, "geometry": {"type": "Point", "coordinates": [45.63656773061211, 0.03275448439214227]}}, {"type": "Feature", "properties": {"norad_id": 38740, "name": "INTELSAT 20 (IS-20)", "group": "intelsat", "lat": -0.027356211841231774, "lon": -51.86706210356002, "alt_km": 35794.64240072508, "timestamp": "2025-12-22T09:53:37.074129+00:00", "meta": {"OBJECT_NAME": "INTELSAT 20 (IS-20)", "OBJECT_ID": "2012-043A", "EPOCH": "2025-12-22T03:13:12.764064", "MEAN_MOTION": 1.00271396, "ECCENTRICITY": 0.0003468, "INCLINATION": 0.0092, "RA_OF_ASC_NODE": 51.1293, "ARG_OF_PERICENTER": 131.436, "MEAN_ANOMALY": 25.1679, "EPHEMERIS_TYPE": 0, "CLASSIFICATION_TYPE": "U", "NORAD_CAT_ID": 38740, "ELEMENT_SET_NO": 999, "REV_AT_EPOCH": 4897, "BSTAR": 0, "MEAN_MOTION_DOT": -2e-08, "MEAN_MOTION_DDOT": 0}, "tle": {"line1": "1 38740U 12043A   25356.13417551 -.00000002  00000+0  00000+0 0  9991", "line2": "2 38740   0.0092  51.1293 0003468 131.4360  25.1679  1.00271396 48972"}}, "geometry": {"type": "Point", "coordinates": [-51.86706210356002, -0.027356211841231774]}}, {"type": "Feature", "properties": {"norad_id": 38749, "name": "INTELSAT 21 (IS-21)", "group": "intelsat", "lat": -0.016473008522596817, "lon": -178.4009449540019, "alt_km": 35785.13211768779, "timestamp": "2025-12-22T09:53:37.074141+00:00", "meta": {"OBJECT_NAME": "INTELSAT 21 (IS-21)", "OBJECT_ID": "2012-045A", "EPOCH": "2025-12-21T19:46:10.920000", "MEAN_MOTION": 1.00271743, "ECCENTRICITY": 0.0001511, "INCLINATION": 0.0219, "RA_OF_ASC_NODE": 293.9251, "ARG_OF_PERICENTER": 328.2978, "MEAN_ANOMALY": 66.962, "EPHEMERIS_TYPE": 0, "CLASSIFICATION_TYPE": "U", "NORAD_CAT_ID": 38749, "ELEMENT_SET_NO": 999, "REV_AT_EPOCH": 4874, "BSTAR": 0, "MEAN_MOTION_DOT": -2.63e-06, "MEAN_MOTION_DDOT": 0}, "tle": {"line1": "1 38749U 12045A   25355.82373750 -.00000263  00000+0  00000+0 0  9998", "line2": "2 38749   0.0219 293.9251 0001511 328.2978  66.9620  1.00271743 48740"}}, "geometry": {"type": "Point", "coordinates": [-178.4009449540019, -0.016473008522596817]}}, {"type": "Feature", "properties": {"norad_id": 38867, "name": "INTELSAT 23 (IS-23)", "group": "intelsat", "lat": 0.017770378013736137, "lon": -173.37876629128428, "alt_km": 35788.11919227127, "timestamp": "2025-12-22T09:53:37.074153+00:00", "meta": {"OBJECT_NAME": "INTELSAT 23 (IS-23)", "OBJECT_ID": "2012-057A", "EPOCH": "2025-12-22T02:38:31.084800", "MEAN_MOTION": 1.00268945, "ECCENTRICITY": 6.81e-05, "INCLINATION": 0.0199, "RA_OF_ASC_NODE": 70.6955, "ARG_OF_PERICENTER": 230.9591, "MEAN_ANOMALY": 135.9115, "EPHEMERIS_TYPE": 0, "CLASSIFICATION_TYPE": "U", "NORAD_CAT_ID": 38867, "ELEMENT_SET_NO": 999, "REV_AT_EPOCH": 4817, "BSTAR": 0, "MEAN_MOTION_DOT": -2.63e-06, "MEAN_MOTION_DDOT": 0}, "tle": {"line1": "1 38867U 12057A   25356.11008200 -.00000263  00000+0  00000+0 0  9990", "line2": "2 38867   0.0199  70.6955 0000681 230.9591 135.9115  1.00268945 48179"}}, "geometry": {"type": "Point", "coordinates": [-173.37876629128428, 0.017770378013736137]}}, {"type": "Feature", "properties": {"norad_id": 39360, "name": "FM-6", "group": "intelsat", "lat": 0.026440304336856253, "lon": 123.42493285396735, "alt_km": 35779.44660260859, "timestamp": "2025-12-22T09:53:37.074164+00:00", "meta": {"OBJECT_NAME": "FM-6", "OBJECT_ID": "2013-058A", "EPOCH": "2025-12-22T01:45:29.872224", "MEAN_MOTION": 1.00269758, "ECCENTRICITY": 0.0002905, "INCLINATION": 0.0111, "RA_OF_ASC_NODE": 60.7431, "ARG_OF_PERICENTER": 116.5751, "MEAN_ANOMALY": 183.7792, "EPHEMERIS_TYPE": 0, "CLASSIFICATION_TYPE": "U", "NORAD_CAT_ID": 39360, "ELEMENT_SET_NO": 999, "REV_AT_EPOCH": 4429, "BSTAR": 0, "MEAN_MOTION_DOT": 5e-08, "MEAN_MOTION_DDOT": 0}, "tle": {"line1": "1 39360U 13058A   25356.07326241  .00000005  00000+0  00000+0 0  9997", "line2": "2 39360   0.0111  60.7431 0002905 116.5751 183.7792  1.00269758 44293"}}, "geometry": {"type": "Point", "coordinates": [123.42493285396735, 0.026440304336856253]}}, {"type": "Feature", "properties": {"norad_id": 40271, "name": "INTELSAT 30 (IS-30)", "group": "intelsat", "lat": 0.028520216975822743, "lon": 144.56776379360886, "alt_km": 35786.28783550341, "timestamp": "2025-12-22T09:53:37.074176+00:00", "meta": {"OBJECT_NAME": "INTELSAT 30 (IS-30)", "OBJECT_ID": "2014-062A", "EPOCH": "2025-12-22T00:43:42.862944", "MEAN_MOTION": 1.00262497, "ECCENTRICITY": 0.0001564, "INCLINATION": 0.0115, "RA_OF_ASC_NODE": 23.9271, "ARG_OF_PERICENTER": 51.8075, "MEAN_ANOMALY": 290.9843, "EPHEMERIS_TYPE": 0, "CLASSIFICATION_TYPE": "U", "NORAD_CAT_ID": 40271, "ELEMENT_SET_NO": 999, "REV_AT_EPOCH": 501, "BSTAR": 0, "MEAN_MOTION_DOT": -1.28e-06, "MEAN_MOTION_DDOT": 0}, "tle": {"line1": "1 40271U 14062A   25356.03035721 -.00000128  00000+0  00000+0 0  9999", "line2": "2 40271   0.0115  23.9271 0001564  51.8075 290.9843  1.00262497  5011"}}, "geometry": {"type": "Point", "coordinates": [144.56776379360886, 0.028520216975822743]}}, {"type": "Feature", "properties": {"norad_id": 40333, "name": "DIRECTV 14", "group": "intelsat", "lat": 0.009094561949648364, "lon": 140.39229336852753, "alt_km": 35785.300867970655, "timestamp": "2025-12-22T09:53:37.074188+00:00", "meta": {"OBJECT_NAME": "DIRECTV 14", "OBJECT_ID": "2014-078B", "EPOCH": "2025-12-22T00:42:35.470080", "MEAN_MOTION": 1.00270485, "ECCENTRICITY": 2.77e-05, "INCLINATION": 0.0077, "RA_OF_ASC_NODE": 317.8356, "ARG_OF_PERICENTER": 174.1037, "MEAN_ANOMALY": 230.3279, "EPHEMERIS_TYPE": 0, "CLASSIFICATION_TYPE": "U", "NORAD_CAT_ID": 40333, "ELEMENT_SET_NO": 999, "REV_AT_EPOCH": 4026, "BSTAR": 0, "MEAN_MOTION_DOT": -1.03e-06, "MEAN_MOTION_DDOT": 0}, "tle": {"line1": "1 40333U 14078B   25356.02957720 -.00000103  00000+0  00000+0 0  9999", "line2": "2 40333   0.0077 317.8356 0000277 174.1037 230.3279  1.00270485 40266"}}, "geometry": {"type": "Point", "coordinates": [140.39229336852753, 0.009094561949648364]}}, {"type": "Feature", "properties": {"norad_id": 40663, "name": "DIRECTV 15", "group": "intelsat", "lat": 0.04195370000904741, "lon": 136.7301588176901, "alt_km": 35785.07080927743, "timestamp": "2025-12-22T09:53:37.074205+00:00", "meta": {"OBJECT_NAME": "DIRECTV 15", "OBJECT_ID": "2015-026A", "EPOCH": "2025-12-22T00:41:35.567232", "MEAN_MOTION": 1.00268896, "ECCENTRICITY": 4.48e-05, "INCLINATION": 0.0242, "RA_OF_ASC_NODE": 19.2315, "ARG_OF_PERICENTER": 132.5309, "MEAN_ANOMALY": 206.5963, "EPHEMERIS_TYPE": 0, "CLASSIFICATION_TYPE": "U", "NORAD_CAT_ID": 40663, "ELEMENT_SET_NO": 999, "REV_AT_EPOCH": 3868, "BSTAR": 0, "MEAN_MOTION_DOT": 0, "MEAN_MOTION_DDOT": 0}, "tle": {"line1": "1 40663U 15026A   25356.02888388  .00000000  00000+0  00000+0 0  9997", "line2": "2 40663   0.0242  19.2315 0000448 132.5309 206.5963  1.00268896 38685"}}, "geometry": {"type": "Point", "coordinates": [136.7301588176901, 0.04195370000904741]}}]}